ONEWEB-0578             
1 56067U 23043X   25089.59831257  .00000096  00000+0  20058-3 0  9992
2 56067  87.9316 332.4246 0001693  85.5331 274.5996 13.21829295 99639
ONEWEB-0579             
1 56068U 23043Y   25089.58886821 -.00000011  00000+0 -57031-4 0  9990
2 56068  87.9310 332.4149 0001997  74.3724 285.7630 13.21825154 99645
ONEWEB-0581             
1 56069U 23043Z   25089.63200591  .00000089  00000+0  19801-3 0  9996
2 56069  87.9062 317.2161 0002158  88.3656 271.7722 13.16593214100591
ONEWEB-0609             
1 56070U 23043AA  25089.61741742  .00000203  00000+0  50505-3 0  9998
2 56070  87.9124 347.5958 0001702  75.5512 284.5807 13.15548117 98116
ONEWEB-0613             
1 56071U 23043AB  25089.61266435  .00000140  00000+0  33756-3 0  9999
2 56071  87.9128 347.6044 0001923  71.5380 288.5959 13.15548584 98112
ONEWEB-0630             
1 56072U 23043AC  25089.45579298  .00000112  00000+0  26384-3 0  9994
2 56072  87.9125 347.6161 0001898  69.0431 291.0903 13.15547378 98084
ONEWEB-0632             
1 56073U 23043AD  25089.45104828  .00000078  00000+0  17374-3 0  9998
2 56073  87.9123 347.6366 0002044  81.1924 278.9437 13.15549364 98089
ONEWEB-0633             
1 56074U 23043AE  25089.74893204 -.00000044  00000+0 -15070-3 0  9990
2 56074  87.9122 347.5483 0001791  63.6916 296.4398 13.15547781 99018
